[
    {
        "Altitude(m)": 604983.0528404001,
        "Argument of Periapsis(deg)": 0.0,
        "Eccentricity": 0.0,
        "Inclination(deg)": 60.0,
        "Latitude(deg)": -0.09254031968360323,
        "Longitude(deg)": 75.08391644363523,
        "Mean Anomaly(deg)": -180.0,
        "RAAN(deg)": 355.0,
        "Satellite Name": "Test1 1573",
        "Satellite Number": 1573,
        "Semi-Major Axis(m)": 6980739.136638005,
        "Time(s)": 0
    },
    {
        "Altitude(m)": 605055.3315479237,
        "Argument of Periapsis(deg)": 0.00010418945913296404,
        "Eccentricity": 0.0,
        "Inclination(deg)": 60.0,
        "Latitude(deg)": -0.6329500700386386,
        "Longitude(deg)": 75.35204159864158,
        "Mean Anomaly(deg)": -179.37989385453815,
        "RAAN(deg)": 354.99957995086027,
        "Satellite Name": "Test1 1573",
        "Satellite Number": 1573,
        "Semi-Major Axis(m)": 6980739.136638005,
        "Time(s)": 10
    }
]